{"fetched_at":"2026-07-15T06:36:03.912Z","source":"https://celestrak.org/NORAD/elements/gp.php?NAME=GLOBAL&FORMAT=JSON","constellation":"blacksky-gen3","records":[{"OBJECT_NAME":"GLOBAL-31","OBJECT_ID":"2025-033B","EPOCH":"2026-07-14T09:52:42.495744","CLASSIFICATION_TYPE":"U","MEAN_MOTION":15.38302561,"ECCENTRICITY":0.00119484,"INCLINATION":58.9961,"RA_OF_ASC_NODE":206.1433,"ARG_OF_PERICENTER":56.3238,"MEAN_ANOMALY":303.8975,"EPHEMERIS_TYPE":0,"NORAD_CAT_ID":63027,"ELEMENT_SET_NO":999,"REV_AT_EPOCH":7851,"BSTAR":0.00014742127,"MEAN_MOTION_DOT":0.00005288,"MEAN_MOTION_DDOT":0},{"OBJECT_NAME":"GLOBAL-32","OBJECT_ID":"2025-118B","EPOCH":"2026-07-14T20:53:39.103872","CLASSIFICATION_TYPE":"U","MEAN_MOTION":15.39282316,"ECCENTRICITY":0.0016451,"INCLINATION":58.9935,"RA_OF_ASC_NODE":20.4963,"ARG_OF_PERICENTER":60.9337,"MEAN_ANOMALY":299.3385,"EPHEMERIS_TYPE":0,"NORAD_CAT_ID":64231,"ELEMENT_SET_NO":999,"REV_AT_EPOCH":6250,"BSTAR":0.00020966487,"MEAN_MOTION_DOT":0.00007945,"MEAN_MOTION_DDOT":0},{"OBJECT_NAME":"GLOBAL-33","OBJECT_ID":"2025-267A","EPOCH":"2026-07-14T12:39:40.687200","CLASSIFICATION_TYPE":"U","MEAN_MOTION":15.37219316,"ECCENTRICITY":0.00079761,"INCLINATION":42.0184,"RA_OF_ASC_NODE":257.1602,"ARG_OF_PERICENTER":87.6414,"MEAN_ANOMALY":272.5338,"EPHEMERIS_TYPE":0,"NORAD_CAT_ID":66554,"ELEMENT_SET_NO":999,"REV_AT_EPOCH":3625,"BSTAR":0.0001793423,"MEAN_MOTION_DOT":0.00006427,"MEAN_MOTION_DDOT":0},{"OBJECT_NAME":"GLOBAL-34","OBJECT_ID":"2026-043A","EPOCH":"2026-07-14T07:51:00.042048","CLASSIFICATION_TYPE":"U","MEAN_MOTION":15.33095416,"ECCENTRICITY":0.00016134,"INCLINATION":42.0216,"RA_OF_ASC_NODE":63.7954,"ARG_OF_PERICENTER":132.7625,"MEAN_ANOMALY":227.3349,"EPHEMERIS_TYPE":0,"NORAD_CAT_ID":68098,"ELEMENT_SET_NO":999,"REV_AT_EPOCH":1999,"BSTAR":0.00018371034,"MEAN_MOTION_DOT":0.00005751,"MEAN_MOTION_DDOT":0}]}
