GLOBAL-31               
1 63027U 25033B   26195.41160296  .00005288  00000+0  14742-3 0  9996
2 63027  58.9961 206.1433 0011948  56.3238 303.8975 15.38302561 78517
GLOBAL-32               
1 64231U 25118B   26195.87059148  .00007945  00000+0  20966-3 0  9998
2 64231  58.9935  20.4963 0016451  60.9337 299.3385 15.39282316 62508
GLOBAL-33               
1 66554U 25267A   26195.52755425  .00006427  00000+0  17934-3 0  9991
2 66554  42.0184 257.1602 0007976  87.6414 272.5338 15.37219316 36253
GLOBAL-34               
1 68098U 26043A   26195.32708382  .00005751  00000+0  18371-3 0  9992
2 68098  42.0216  63.7954 0001613 132.7625 227.3349 15.33095416 19994
